{
  "type": "FeatureCollection",
  "features": [
    {
      "type": "Feature",
      "properties": {
        "name": "พื้นที่เฝ้าระวัง A",
        "ประเภท": "เขตเฝ้าระวังมลพิษ",
        "ระดับ": "เฝ้าระวังสูง",
        "ผู้รับผิดชอบ": "หน่วยงานตัวอย่าง"
      },
      "geometry": {
        "type": "Polygon",
        "coordinates": [[[101.165, 12.728], [101.195, 12.728], [101.195, 12.748], [101.165, 12.748], [101.165, 12.728]]]
      }
    },
    {
      "type": "Feature",
      "properties": {
        "name": "จุดตรวจวัดตัวอย่าง",
        "ประเภท": "จุดตรวจวัดคุณภาพอากาศ",
        "สถานะ": "กำลังติดตาม"
      },
      "geometry": { "type": "Point", "coordinates": [101.18, 12.738] }
    }
  ]
}
